NORAD_CAT_ID,OBJECT_NAME,OBJECT_TYPE,EPOCH,MEAN_MOTION,ECCENTRICITY,INCLINATION,RA_OF_ASC_NODE,ARG_OF_PERICENTER,MEAN_ANOMALY,BSTAR,MEAN_MOTION_DOT,MEAN_MOTION_DDOT,TLE_LINE0,TLE_LINE1,TLE_LINE2,SEMIMAJOR_AXIS,PERIOD,APOGEE,PERIGEE,DECAYED
52859.0,STARLINK-4196,PAYLOAD,2022-08-19 14:00:01,15.49999733,0.0001151,53.2151,94.2608,69.1449,42.6246,-0.0043591,-0.0024136,0.0,0 STARLINK-4196,1 52859U 22062AF  22231.58334491 -.00241360  00000-0 -43591-2 0  9990,2 52859  53.2151  94.2608 0001151  69.1449  42.6246 15.49999733  1305,6794.864000000001,92.903,417.511,415.947,0.0
52859.0,STARLINK-4196,PAYLOAD,2022-08-19 22:00:00,15.49911993,0.0001255,53.2167,92.6691,61.9438,110.7791,-0.014909,-0.00779359,0.0,0 STARLINK-4196,1 52859U 22062AF  22231.91667824 -.00779359  00000-0 -14909-1 0  9990,2 52859  53.2167  92.6691 0001255  61.9438 110.7791 15.49911993  1303,6795.12,92.909,417.838,416.132,0.0
52859.0,STARLINK-4196,PAYLOAD,2022-08-20 08:00:01,15.49173361,0.0001242,53.2172,90.6772,52.8528,285.5292,-0.0211729999999999,-0.0106343999999999,0.0,0 STARLINK-4196,1 52859U 22062AF  22232.33334491 -.01063440  00000-0 -21173-1 0  9997,2 52859  53.2172  90.6772 0001242  52.8528 285.5292 15.49173361 10522,6797.28,92.953,419.989,418.301,0.0
52859.0,STARLINK-4196,PAYLOAD,2022-08-20 14:00:01,15.48599726,0.0001277,53.2176,89.4832,61.4442,231.718,-0.021437,-0.01055841,0.0,0 STARLINK-4196,1 52859U 22062AF  22232.58334491 -.01055841  00000-0 -21437-1 0  9993,2 52859  53.2176  89.4832 0001277  61.4442 231.7180 15.48599726  1309,6798.958000000001,92.987,421.692,419.955,0.0
52859.0,STARLINK-4196,PAYLOAD,2022-08-20 22:00:00,15.47843181,0.0001348,53.2175,87.8963,50.3761,301.6901,-0.022134,-0.01061022,0.0,0 STARLINK-4196,1 52859U 22062AF  22232.91667824 -.01061022  00000-0 -22134-1 0  9992,2 52859  53.2175  87.8963 0001348  50.3761 301.6901 15.47843181  1309,6801.174,93.033,423.956,422.122,0.0
52859.0,STARLINK-4196,PAYLOAD,2022-08-21 06:00:00,15.47082341,0.0001202,53.2174,86.3081,59.011,351.0501,-0.022675,-0.01058589,0.0,0 STARLINK-4196,1 52859U 22062AF  22233.25001157 -.01058589  00000-0 -22675-1 0  9995,2 52859  53.2174  86.3081 0001202  59.0110 351.0501 15.47082341 10663,6803.403,93.078,426.086,424.451,0.0
52859.0,STARLINK-4196,PAYLOAD,2022-08-21 14:00:01,15.46321509,0.0001386999999999,53.2177,84.7216,56.4843,50.6585,-0.023214,-0.01055757,0.0,0 STARLINK-4196,1 52859U 22062AF  22233.58334491 -.01055757  00000-0 -23214-1 0  9995,2 52859  53.2177  84.7216 0001387  56.4843  50.6585 15.46321509  1302,6805.635,93.124,428.444,426.556,0.0
52859.0,STARLINK-4196,PAYLOAD,2022-08-21 22:00:00,15.45562792,0.0001597,53.2175,83.1401,50.5011,112.8085,-0.023862,-0.01057019,0.0,0 STARLINK-4196,1 52859U 22062AF  22233.91667824 -.01057019  00000-0 -23862-1 0  9993,2 52859  53.2175  83.1401 0001597  50.5011 112.8085 15.45562792  1300,6807.861999999999,93.17,430.814,428.64,0.0
52859.0,STARLINK-4196,PAYLOAD,2022-08-22 06:00:00,15.44804824,0.0001351999999999,53.2173,81.5572,67.7871,150.7785,-0.024568,-0.01059885,0.0,0 STARLINK-4196,1 52859U 22062AF  22234.25001157 -.01059885  00000-0 -24568-1 0  9999,2 52859  53.2173  81.5572 0001352  67.7871 150.7785 15.44804824 10821,6810.089,93.216,432.874,431.033,0.0
52859.0,STARLINK-4196,PAYLOAD,2022-08-22 12:00:00,15.44233985,0.0001422,53.2173,80.37100000000002,60.6641,108.7453,-0.025011,-0.01058268,0.0,0 STARLINK-4196,1 52859U 22062AF  22234.50001157 -.01058268  00000-0 -25011-1 0  9995,2 52859  53.2173  80.3710 0001422  60.6641 108.7453 15.44233985  1309,6811.767,93.25,434.6,432.663,0.0
52859.0,STARLINK-4196,PAYLOAD,2022-08-22 22:00:00,15.43285149,0.0001284999999999,53.2174,78.4003,59.3776,266.9604,-0.02583,-0.01072935,0.0,0 STARLINK-4196,1 52859U 22062AF  22234.91667824 -.01072935  00000-0 -25830-1 0  9995,2 52859  53.2174  78.4003 0001285  59.3776 266.9604 15.43285149  1307,6814.558000000001,93.307,437.299,435.548,0.0
52859.0,STARLINK-4196,PAYLOAD,2022-08-23 06:00:00,15.42525432,0.0001158,53.2174,76.8227,62.0783,316.7784,-0.0265,-0.01072789,0.0,0 STARLINK-4196,1 52859U 22062AF  22235.25001157 -.01072789  00000-0 -26500-1 0  9996,2 52859  53.2174  76.8227 0001158  62.0783 316.7784 15.42525432 10972,6816.795999999999,93.353,439.45,437.871,0.0
52859.0,STARLINK-4196,PAYLOAD,2022-08-23 14:00:01,15.41763698,0.0001271,53.2174,75.2473,62.1293,8.3333,-0.027066,-0.01068353,0.0,0 STARLINK-4196,1 52859U 22062AF  22235.58334491 -.01068353  00000-0 -27066-1 0  9992,2 52859  53.2174  75.2473 0001271  62.1293   8.3333 15.41763698  1309,6819.041,93.4,441.773,440.039,0.0
52859.0,STARLINK-4196,PAYLOAD,2022-08-23 22:00:01,15.41005501,0.0001468,53.2174,73.6767,55.5154,65.7021,-0.027826,-0.01070645,0.0,0 STARLINK-4196,1 52859U 22062AF  22235.91668981 -.01070645  00000-0 -27826-1 0  9994,2 52859  53.2174  73.6767 0001468  55.5154  65.7021 15.41005501  1300,6821.276999999999,93.445,444.144,442.141,0.0
52859.0,STARLINK-4196,PAYLOAD,2022-08-24 06:00:00,15.40246732,0.0001361999999999,53.2175,72.1044,68.0385,102.8951,-0.028573,-0.01071798,0.0,0 STARLINK-4196,1 52859U 22062AF  22236.25001157 -.01071798  00000-0 -28573-1 0  9998,2 52859  53.2175  72.1044 0001362  68.0385 102.8951 15.40246732 11129,6823.518,93.492,446.312,444.453,0.0
52859.0,STARLINK-4196,PAYLOAD,2022-08-24 14:00:01,15.39485668,0.0001419999999999,53.2175,70.5349,65.9482,153.8528,-0.029199,-0.01068294,0.0,0 STARLINK-4196,1 52859U 22062AF  22236.58334491 -.01068294  00000-0 -29199-1 0  9996,2 52859  53.2175  70.5349 0001420  65.9482 153.8528 15.39485668  1304,6825.766,93.538,448.6,446.662,0.0
52859.0,STARLINK-4196,PAYLOAD,2022-08-24 22:00:00,15.38725856,0.0001333,53.2176,68.9694,69.8394,197.9149,-0.029929,-0.01067901,0.0,0 STARLINK-4196,1 52859U 22062AF  22236.91667824 -.01067901  00000-0 -29929-1 0  9997,2 52859  53.2176  68.9694 0001333  69.8394 197.9149 15.38725856  1300,6828.013000000001,93.584,450.788,448.968,0.0
52859.0,STARLINK-4196,PAYLOAD,2022-08-25 06:00:02,15.37968815,0.0001249,53.2175,67.4023,59.9362,254.9242,-0.030837,-0.01072835,0.0,0 STARLINK-4196,1 52859U 22062AF  22237.25002315 -.01072835  00000-0 -30837-1 0  9995,2 52859  53.2175  67.4023 0001249  59.9362 254.9242 15.37968815 11289,6830.253000000002,93.63,452.972,451.265,0.0
52859.0,STARLINK-4196,PAYLOAD,2022-08-25 14:00:01,15.37207706,0.0001296999999999,53.2177,65.8385,55.0554,305.8701,-0.031492,-0.01069057,0.0,0 STARLINK-4196,1 52859U 22062AF  22237.58334491 -.01069057  00000-0 -31492-1 0  9994,2 52859  53.2177  65.8385 0001297  55.0554 305.8701 15.37207706  1311,6832.5080000000025,93.676,455.259,453.487,0.0
52859.0,STARLINK-4196,PAYLOAD,2022-08-25 22:00:00,15.36447704,0.0001347,53.2176,64.2783,53.735,352.4064,-0.032276,-0.01068955,0.0,0 STARLINK-4196,1 52859U 22062AF  22237.91667824 -.01068955  00000-0 -32276-1 0  9997,2 52859  53.2176  64.2783 0001347  53.7350 352.4064 15.36447704  1302,6834.761,93.723,457.546,455.705,0.0
52859.0,STARLINK-4196,PAYLOAD,2022-08-26 06:00:00,15.35687728,0.000144,53.2176,62.7166,49.8344,40.6117,-0.033048,-0.01068047,0.0,0 STARLINK-4196,1 52859U 22062AF  22238.25001157 -.01068047  00000-0 -33048-1 0  9996,2 52859  53.2176  62.7166 0001440  49.8344  40.6117 15.35687728 11434,6837.016,93.769,459.865,457.896,0.0
52859.0,STARLINK-4196,PAYLOAD,2022-08-26 14:00:01,15.34927607,0.0001521999999999,53.2178,61.1581,53.5601,80.3411,-0.033818,-0.01066659,0.0,0 STARLINK-4196,1 52859U 22062AF  22238.58335648 -.01066659  00000-0 -33818-1 0  9999,2 52859  53.2178  61.1581 0001522  53.5601  80.3411 15.34927607  1304,6839.273,93.815,462.17800000000005,460.097,0.0
52859.0,STARLINK-4196,PAYLOAD,2022-08-26 22:00:00,15.34166072,0.0001545,53.2176,59.6034,55.8374,120.4778,-0.0345269999999999,-0.01063098,0.0,0 STARLINK-4196,1 52859U 22062AF  22238.91667824 -.01063098  00000-0 -34527-1 0  9992,2 52859  53.2176  59.6034 0001545  55.8374 120.4778 15.34166072  1307,6841.536,93.862,464.458,462.344,0.0
52859.0,STARLINK-4196,PAYLOAD,2022-08-27 14:00:01,15.32649211,0.0001472,53.2177,56.4943,56.3208,202.213,-0.036342,-0.01066023,0.0,0 STARLINK-4196,1 52859U 22062AF  22239.58334491 -.01066023  00000-0 -36342-1 0  9995,2 52859  53.2177  56.4943 0001472  56.3208 202.2130 15.32649211  1303,6846.049,93.955,468.922,466.906,0.0
52859.0,STARLINK-4196,PAYLOAD,2022-08-27 22:00:00,15.3188828,0.0001277,53.2175,54.9447,69.9935,228.2802,-0.037131,-0.01063496,0.0,0 STARLINK-4196,1 52859U 22062AF  22239.91667824 -.01063496  00000-0 -37131-1 0  9999,2 52859  53.2175  54.9447 0001277  69.9935 228.2802 15.31888280 11690,6848.316,94.002,471.055,469.306,0.0
52859.0,STARLINK-4196,PAYLOAD,2022-08-28 14:00:01,15.30372156,0.0001312,53.2177,51.8464,55.1605,319.8557,-0.039133,-0.01068399,0.0,0 STARLINK-4196,1 52859U 22062AF  22240.58334491 -.01068399  00000-0 -39133-1 0  9996,2 52859  53.2177  51.8464 0001312  55.1605 319.8557 15.30372156  1308,6852.8380000000025,94.095,475.602,473.804,0.0
52859.0,STARLINK-4196,PAYLOAD,2022-08-28 22:00:00,15.29609222,0.0001259,53.2174,50.302,63.1337,348.8853,-0.039845,-0.01062799,0.0,0 STARLINK-4196,1 52859U 22062AF  22240.91667824 -.01062799  00000-0 -39845-1 0  9990,2 52859  53.2174  50.3020 0001259  63.1337 348.8853 15.29609222 11844,6855.1169999999975,94.142,477.845,476.119,0.0
52859.0,STARLINK-4196,PAYLOAD,2022-08-29 14:00:01,15.28092419,0.0001574,53.2176,47.2145,50.3282,72.9575,-0.041915,-0.01066557,0.0,0 STARLINK-4196,1 52859U 22062AF  22241.58334491 -.01066557  00000-0 -41915-1 0  9992,2 52859  53.2176  47.2145 0001574  50.3282  72.9575 15.28092419  1305,6859.651999999999,94.235,482.597,480.437,0.0
52859.0,STARLINK-4196,PAYLOAD,2022-08-29 22:00:00,15.2732837,0.0001424,53.2173,45.6755,65.1678,92.3831,-0.04256,-0.01058551,0.0,0 STARLINK-4196,1 52859U 22062AF  22241.91667824 -.01058551  00000-0 -42560-1 0  9990,2 52859  53.2173  45.6755 0001424  65.1678  92.3831 15.27328370  1306,6861.94,94.282,484.782,482.828,0.0
